{
  "norad_id": 65345,
  "name": "STARLINK-34831",
  "history": [
    {
      "epoch": "2026-03-28T19:18:44.465184Z",
      "apogee_km": 476.2520543012115,
      "perigee_km": 474.1166964270751,
      "latitude_deg": -2.1307290895373413e-05,
      "longitude_deg": 2.0269465455896136,
      "height_km": 475.92475168897613,
      "semi_major_axis_km": 6853.321375364143,
      "eccentricity": 0.00015579,
      "inclination_deg": 53.1608,
      "raan_deg": 117.9321,
      "arg_perigee_deg": 81.5214,
      "mean_anomaly_deg": 278.5963,
      "mean_motion_rev_day": 15.3021028
    }
  ]
}